[{"OBJECT_NAME":"STARLINK-34935","OBJECT_ID":"2025-184E","EPOCH":"2026-03-09T22:51:52.994016","MEAN_MOTION":15.05649777,"ECCENTRICITY":0.00011009,"INCLINATION":97.6036,"RA_OF_ASC_NODE":122.9671,"ARG_OF_PERICENTER":97.5253,"MEAN_ANOMALY":262.6099,"EPHEMERIS_TYPE":0,"CLASSIFICATION_TYPE":"U","NORAD_CAT_ID":65277,"ELEMENT_SET_NO":999,"REV_AT_EPOCH":3134,"BSTAR":0.00023691638,"MEAN_MOTION_DOT":3.359e-5,"MEAN_MOTION_DDOT":0},{"OBJECT_NAME":"OBJECT Z","OBJECT_ID":"2017-042Z","EPOCH":"2026-03-09T21:17:53.130336","MEAN_MOTION":15.06776019,"ECCENTRICITY":0.00062541,"INCLINATION":97.3821,"RA_OF_ASC_NODE":235.9429,"ARG_OF_PERICENTER":50.1524,"MEAN_ANOMALY":310.0253,"EPHEMERIS_TYPE":0,"CLASSIFICATION_TYPE":"U","NORAD_CAT_ID":42848,"ELEMENT_SET_NO":999,"REV_AT_EPOCH":47228,"BSTAR":0.00039314781,"MEAN_MOTION_DOT":5.795e-5,"MEAN_MOTION_DDOT":0}]
